#dP2018 12 14  0  0  0.00000000      96 __u+U IGS08 FIT  IAC
## 2031 432000.00000000   900.00000000 58466 0.0000000000000
+   97   C01C02C03C04C05C06C07C08C09C10C11C12C13C14C32E01E02
+        E03E04E05E07E08E09E11E12E13E14E15E18E19E21E24E25E26
+        E27E30E31E33E36G01G02G03G04G05G06G07G08G09G10G11G12
+        G13G14G15G16G17G18G19G20G21G22G23G24G25G26G27G28G29
+        G30G31G32J01J02J03R01R02R03R04R05R07R08R09R10R11R13
+        R14R15R16R17R18R19R20R21R22R23R24R26  0  0  0  0  0
++        12 12 12 12 12  8  8  8  8  8  7  7  9  8 13  6  5
++         5  5  5  5  5  5  5  6  6  6  6  5  6  6  5  5  6
++         5  5  5  5  6  3  3  3  3  3  3  3  3  3  3  3  3
++         3  3  3  3  3  3  3  3  3  3  3  3  0  3  3  3  3
++         3  3  3  9 11 11  6  6  6  6  6  5  5  5  8  7  5
++         5  5  5  5  5  5  5  5  5  5  5  8  0  0  0  0  0
%c M  cc GPS ccc cccc cccc cccc cccc ccccc ccccc ccccc ccccc
%c cc cc ccc ccc cccc cccc cccc cccc ccccc ccccc ccccc ccccc
%f  1.2500000  1.025000000  0.00000000000  0.000000000000000
%f  0.0000000  0.000000000  0.00000000000  0.000000000000000
%i    0    0    0    0      0      0      0      0         0
%i    0    0    0    0      0      0      0      0         0
/* INFORMATION & ANALYSIS CENTER (IAC)            FINAL DATA
/* S/V CLOCKS ARE ALIGNED TO GPS & GLONASS TIME RESPECTIVELY
/* USING THE BROADCAST EPHEMERIS                            
/* PCV:IGS14_2029 OL/AL:FES2004  NONE     YN ORB:CoN CLK:CoN
*  2018 12 14  2  0  0.00000000
PC01 -32326.400529  27041.630960   -940.740571    -41.952868
PC02   4462.301900  41915.523291    983.556188   -169.237450
PC03 -14740.153550  39538.555895   -260.141192   -199.344684
PC04 -39615.443019  14367.556205   -457.176848   -255.012657
PC05  21885.743173  36034.942579   1257.325349     43.631519
PC06  -9137.238684  33897.656615  23881.115863    150.991814
PC07 -18069.146192  21088.060864 -31701.833616   -182.426763
PC08 -23437.512428  33174.032138  10875.272483     61.305569
PC09   1376.205231  41140.765823  10067.729648    364.068156
PC10    771.434524  26032.722728 -32963.349655   -319.338638
PC11  16303.894531  -6049.876283  21900.601755    -86.612005
PC12   5727.200394  22246.088296  15845.061775    273.943441
PC13 -12324.921955  33804.768146  21796.479189   -427.678718
PC14  23280.979654  12076.508680  -9558.882593    454.726735
PC32 -16653.615299 -21331.107319  -6812.106510 999999.999999
PE01  29204.611322   -879.282072   4754.247902   -498.514786
PE02 -29191.128848    898.875032  -4781.103290     39.035755
PE03 -18730.275836  -1472.011493  22870.202555   -110.493829
PE04   8257.353458 -18456.716256 -21620.448875   -178.497327
PE05 -18290.360982 -20648.904709  10731.955858    142.970837
PE07   7156.707955  27683.079228   7638.883514    -93.212488
PE08  -7932.844923  18517.137065  21680.161858   6443.944948
PE09  -7443.010070 -27610.527730  -7673.876370   6589.222973
PE11   3344.871401 -24481.840135 -16290.400332   5715.868531
PE12  17560.807533 -23739.331757   1993.173383   5711.394511
PE13  -3374.969339  24528.742151  16227.698855    162.930244
PE14 -20336.198291   6103.588743 -24759.309487   6475.275095
PE15 -17217.087806  24022.146080  -1576.988677    710.112502
PE18  14304.096103  -6590.434854  17257.267078   5684.288615
PE19  19137.577842   3645.791249 -22290.388957     -9.918788
PE21  23507.314156  11074.439445 -14172.179097   -509.256474
PE24  -4503.988247 -16385.615322  24229.404381   6339.884399
PE25 -23476.649215 -11101.054626  14216.583957   1954.873709
PE26  12455.704951  11016.633889  24494.448222   5138.457922
PE27   3933.923345  16328.880056 -24365.293340    570.878274
PE30 -17483.259869  12179.999299 -20543.741936   5271.992473
PE31  17920.036452 -12013.979209  20276.902978    959.217772
PE33  21052.130116  -9456.711786  18546.026500    628.074397
PE36 -12496.088317 -10683.340178 -24605.372072    557.097179
PG01   7634.825760 -18922.355670 -17003.240851   -128.570269
PG02 -21629.300939  15059.066066  -1573.823524    -85.073621
PG03  -2988.653629 -17122.434838 -20140.914650    169.334066
PG04  13965.840381  -6790.908056  21236.102570    -96.955816
PG05 -17432.227775   6803.953190  18802.089387      0.366447
PG06 -22338.995511   3703.479431 -13862.963418    316.767302
PG07  -7980.803714 -13181.218431  21865.986759     70.983187
PG08   6849.898598 -22306.082912  12571.592832   -125.493611
PG09  -7978.751933 -23854.851113   8472.869975    483.398685
PG10  24299.693513  10903.233147  -1217.358763    151.873259
PG11   7140.250587 -24456.833045  -8433.512056   -688.894075
PG12  -1265.850904  15781.109848 -21552.602066    284.688054
PG13 -12485.490083  16168.326637  16841.214180    -81.654397
PG14  15078.476810    360.797440 -21561.645601    -94.662589
PG15  -3311.509516  24304.430641   9420.651113   -336.347363
PG16  18103.238586  -3872.718276  19047.904656     -6.507518
PG17 -13282.726333 -11226.490990 -19702.086983    -18.935975
PG18  15507.713783 -19616.519785  -9204.151775      5.211294
PG19 -14903.547374   -108.127987 -22276.566383   -374.120502
PG20  20813.831870  14156.768758   8554.402726    519.916394
PG21  11368.841009  11267.833325  21996.054383   -287.761880
PG22   5316.715058 -14943.959707 -21073.432218   -598.052514
PG23  -1792.868052 -26256.646250   -581.218378   -203.602493
PG24 -11385.065294  20147.179828 -12883.188990    -59.475272
PG25  10714.584897  17989.531721 -16670.684206 999999.999999
PG26  23784.384508   1746.469108  11856.868657     67.026305
PG27  12018.729436 -13583.361435  19219.478687    -31.994577
PG28 -22326.347096 -14299.226226    991.468318    758.402837
PG29   4324.996747  25416.365925   6359.402941    315.939791
PG30 -17903.691646  -5273.591435  18975.452334    -19.429860
PG31  23622.709517  -5565.573628 -11277.382659     73.003443
PG32  14971.857521   8315.217691 -20289.478468   -319.580281
PJ01 -25084.230361  23347.208838  29642.679457   -242.816136
PJ02 -34949.392858  17946.490046 -10829.573312     -0.841764
PJ03 -18706.069258  30560.839661 -17726.861139      1.980900
PR01 -10023.899220   5141.684513  22879.553068 999999.999999
PR02   5238.355084  19477.227793  15679.511008 999999.999999
PR03  15589.799801  20204.185874   -774.205366 999999.999999
PR04  16766.382454   8724.542863 -17131.697283 999999.999999
PR05   8384.895499  -6912.760267 -23075.326813 999999.999999
PR07 -15747.350969 -19998.759972   1343.348739 999999.999999
PR08 -16918.288826  -9322.199804  16698.415986 999999.999999
PR09   2807.950414 -11370.744959  22669.999264 999999.999999
PR10 -14460.922123  -7563.667940  19616.712353 999999.999999
PR11 -25096.608300    616.517868   4660.808683    -50.091923
PR13  -3848.607758  11204.707694 -22603.349014    -17.889030
PR14  14448.071363   7694.224869 -19544.257592     33.944327
PR15  24910.210796   -257.680023  -5476.827192     98.860175
PR16  21184.231104  -8401.529936  11562.412635    108.699445
PR17   3203.857694  15599.131280  19925.456618    187.712291
PR18  11612.349772   -809.495324  22708.387551     28.104744
PR19  14168.446538 -16714.617522  13069.968250    -62.122952
PR20   8016.507521 -23499.958077  -5739.560433   -362.264829
PR21  -3408.026445 -15223.776913 -20185.980732    -19.757887
PR22 -12403.640395   3468.303217 -22032.571350    -64.485903
PR23 -13152.222635  19969.319809  -8881.975406    196.669435
PR24  -6845.944180  23527.710524   7086.715944   -174.885433
PR26   8482.401303 -23754.358644  -3884.387917      9.789043
EOF
